[{"OBJECT_NAME":"STARLINK-36073","OBJECT_ID":"2025-280Z","EPOCH":"2026-03-09T22:45:29.195712","MEAN_MOTION":14.98332199,"ECCENTRICITY":0.00021093,"INCLINATION":70.0025,"RA_OF_ASC_NODE":333.8389,"ARG_OF_PERICENTER":275.8635,"MEAN_ANOMALY":84.2284,"EPHEMERIS_TYPE":0,"CLASSIFICATION_TYPE":"U","NORAD_CAT_ID":66844,"ELEMENT_SET_NO":999,"REV_AT_EPOCH":1608,"BSTAR":0.00024127367,"MEAN_MOTION_DOT":2.787e-5,"MEAN_MOTION_DDOT":0},{"OBJECT_NAME":"FENGYUN 1C DEB","OBJECT_ID":"1999-025UY","EPOCH":"2026-03-09T17:57:35.667936","MEAN_MOTION":14.7972234,"ECCENTRICITY":0.00936968,"INCLINATION":98.7622,"RA_OF_ASC_NODE":152.739,"ARG_OF_PERICENTER":348.8437,"MEAN_ANOMALY":135.9619,"EPHEMERIS_TYPE":0,"CLASSIFICATION_TYPE":"U","NORAD_CAT_ID":30191,"ELEMENT_SET_NO":999,"REV_AT_EPOCH":1561,"BSTAR":0.00058698709,"MEAN_MOTION_DOT":4.686e-5,"MEAN_MOTION_DDOT":0}]
